[{"OBJECT_NAME":"ONEWEB-0197","OBJECT_ID":"2021-031AC","EPOCH":"2026-02-13T03:42:22.694976","MEAN_MOTION":13.14503743,"ECCENTRICITY":0.0001931,"INCLINATION":87.9024,"RA_OF_ASC_NODE":314.4231,"ARG_OF_PERICENTER":67.5665,"MEAN_ANOMALY":292.5669,"EPHEMERIS_TYPE":0,"CLASSIFICATION_TYPE":"U","NORAD_CAT_ID":48236,"ELEMENT_SET_NO":999,"REV_AT_EPOCH":23189,"BSTAR":-0.00067306,"MEAN_MOTION_DOT":-2.37e-6,"MEAN_MOTION_DDOT":0},{"OBJECT_NAME":"ONEWEB-0194","OBJECT_ID":"2021-031AD","EPOCH":"2026-02-13T03:12:52.599168","MEAN_MOTION":13.14505796,"ECCENTRICITY":0.0001454,"INCLINATION":87.9025,"RA_OF_ASC_NODE":314.4444,"ARG_OF_PERICENTER":74.509,"MEAN_ANOMALY":285.62,"EPHEMERIS_TYPE":0,"CLASSIFICATION_TYPE":"U","NORAD_CAT_ID":48237,"ELEMENT_SET_NO":999,"REV_AT_EPOCH":23206,"BSTAR":0.00030381,"MEAN_MOTION_DOT":1.25e-6,"MEAN_MOTION_DDOT":0},{"OBJECT_NAME":"ONEWEB-0193","OBJECT_ID":"2021-031AE","EPOCH":"2026-02-13T03:35:43.805184","MEAN_MOTION":13.1450292,"ECCENTRICITY":0.0001251,"INCLINATION":87.9021,"RA_OF_ASC_NODE":314.4338,"ARG_OF_PERICENTER":69.6085,"MEAN_ANOMALY":290.5179,"EPHEMERIS_TYPE":0,"CLASSIFICATION_TYPE":"U","NORAD_CAT_ID":48238,"ELEMENT_SET_NO":999,"REV_AT_EPOCH":23201,"BSTAR":-0.0010774,"MEAN_MOTION_DOT":-3.87e-6,"MEAN_MOTION_DDOT":0},{"OBJECT_NAME":"ONEWEB-0191","OBJECT_ID":"2021-031AF","EPOCH":"2026-02-13T03:51:42.522048","MEAN_MOTION":13.14504304,"ECCENTRICITY":0.0001712,"INCLINATION":87.9026,"RA_OF_ASC_NODE":314.4259,"ARG_OF_PERICENTER":75.433,"MEAN_ANOMALY":284.6989,"EPHEMERIS_TYPE":0,"CLASSIFICATION_TYPE":"U","NORAD_CAT_ID":48239,"ELEMENT_SET_NO":999,"REV_AT_EPOCH":23187,"BSTAR":-0.00042948,"MEAN_MOTION_DOT":-1.46e-6,"MEAN_MOTION_DDOT":0},{"OBJECT_NAME":"ONEWEB-0195","OBJECT_ID":"2021-031AG","EPOCH":"2026-02-13T03:18:35.424864","MEAN_MOTION":13.14504221,"ECCENTRICITY":0.0001867,"INCLINATION":87.9026,"RA_OF_ASC_NODE":314.4282,"ARG_OF_PERICENTER":92.4557,"MEAN_ANOMALY":267.6787,"EPHEMERIS_TYPE":0,"CLASSIFICATION_TYPE":"U","NORAD_CAT_ID":48240,"ELEMENT_SET_NO":999,"REV_AT_EPOCH":23185,"BSTAR":0.0001838,"MEAN_MOTION_DOT":8.1e-7,"MEAN_MOTION_DDOT":0},{"OBJECT_NAME":"ONEWEB-0201","OBJECT_ID":"2021-031AH","EPOCH":"2026-02-13T03:01:40.097856","MEAN_MOTION":13.14503219,"ECCENTRICITY":0.0002033,"INCLINATION":87.9015,"RA_OF_ASC_NODE":314.4618,"ARG_OF_PERICENTER":84.2106,"MEAN_ANOMALY":275.9256,"EPHEMERIS_TYPE":0,"CLASSIFICATION_TYPE":"U","NORAD_CAT_ID":48241,"ELEMENT_SET_NO":999,"REV_AT_EPOCH":23208,"BSTAR":0.00049011,"MEAN_MOTION_DOT":1.94e-6,"MEAN_MOTION_DDOT":0},{"OBJECT_NAME":"ONEWEB-0207","OBJECT_ID":"2021-031AJ","EPOCH":"2026-02-13T02:32:55.665312","MEAN_MOTION":13.14504524,"ECCENTRICITY":0.000193,"INCLINATION":87.9021,"RA_OF_ASC_NODE":314.4343,"ARG_OF_PERICENTER":75.0695,"MEAN_ANOMALY":285.0649,"EPHEMERIS_TYPE":0,"CLASSIFICATION_TYPE":"U","NORAD_CAT_ID":48242,"ELEMENT_SET_NO":999,"REV_AT_EPOCH":23199,"BSTAR":0.000369,"MEAN_MOTION_DOT":1.5e-6,"MEAN_MOTION_DDOT":0},{"OBJECT_NAME":"ONEWEB-0208","OBJECT_ID":"2021-031AK","EPOCH":"2026-02-13T03:56:16.372896","MEAN_MOTION":13.14504039,"ECCENTRICITY":0.0001805,"INCLINATION":87.9023,"RA_OF_ASC_NODE":314.436,"ARG_OF_PERICENTER":86.5649,"MEAN_ANOMALY":273.5687,"EPHEMERIS_TYPE":0,"CLASSIFICATION_TYPE":"U","NORAD_CAT_ID":48243,"ELEMENT_SET_NO":999,"REV_AT_EPOCH":23201,"BSTAR":-0.00053673,"MEAN_MOTION_DOT":-1.86e-6,"MEAN_MOTION_DDOT":0},{"OBJECT_NAME":"ONEWEB-0200","OBJECT_ID":"2021-031AL","EPOCH":"2026-02-13T03:03:45.364896","MEAN_MOTION":13.14503371,"ECCENTRICITY":0.0001764,"INCLINATION":87.9022,"RA_OF_ASC_NODE":314.4323,"ARG_OF_PERICENTER":81.8947,"MEAN_ANOMALY":278.2382,"EPHEMERIS_TYPE":0,"CLASSIFICATION_TYPE":"U","NORAD_CAT_ID":48244,"ELEMENT_SET_NO":999,"REV_AT_EPOCH":23193,"BSTAR":0.0005854,"MEAN_MOTION_DOT":2.3e-6,"MEAN_MOTION_DDOT":0},{"OBJECT_NAME":"ONEWEB-0217","OBJECT_ID":"2021-031AM","EPOCH":"2026-02-13T03:26:35.467584","MEAN_MOTION":13.14503363,"ECCENTRICITY":0.0001828,"INCLINATION":87.9031,"RA_OF_ASC_NODE":314.4272,"ARG_OF_PERICENTER":91.4246,"MEAN_ANOMALY":268.7093,"EPHEMERIS_TYPE":0,"CLASSIFICATION_TYPE":"U","NORAD_CAT_ID":48245,"ELEMENT_SET_NO":999,"REV_AT_EPOCH":23188,"BSTAR":-7.8093e-5,"MEAN_MOTION_DOT":-1.6e-7,"MEAN_MOTION_DDOT":0},{"OBJECT_NAME":"ONEWEB-0211","OBJECT_ID":"2021-045A","EPOCH":"2026-02-13T02:59:54.725280","MEAN_MOTION":13.16142405,"ECCENTRICITY":0.0001513,"INCLINATION":87.8979,"RA_OF_ASC_NODE":283.8788,"ARG_OF_PERICENTER":101.8204,"MEAN_ANOMALY":258.3097,"EPHEMERIS_TYPE":0,"CLASSIFICATION_TYPE":"U","NORAD_CAT_ID":48767,"ELEMENT_SET_NO":999,"REV_AT_EPOCH":22812,"BSTAR":0.00036698,"MEAN_MOTION_DOT":1.52e-6,"MEAN_MOTION_DDOT":0},{"OBJECT_NAME":"ONEWEB-0223","OBJECT_ID":"2021-045B","EPOCH":"2026-02-13T03:27:00.770688","MEAN_MOTION":13.15549969,"ECCENTRICITY":0.0001314,"INCLINATION":87.8981,"RA_OF_ASC_NODE":283.9513,"ARG_OF_PERICENTER":98.7054,"MEAN_ANOMALY":261.4225,"EPHEMERIS_TYPE":0,"CLASSIFICATION_TYPE":"U","NORAD_CAT_ID":48768,"ELEMENT_SET_NO":999,"REV_AT_EPOCH":22809,"BSTAR":-0.00027767,"MEAN_MOTION_DOT":-9.2e-7,"MEAN_MOTION_DDOT":0},{"OBJECT_NAME":"ONEWEB-0230","OBJECT_ID":"2021-045C","EPOCH":"2026-02-13T02:45:56.755008","MEAN_MOTION":13.15548843,"ECCENTRICITY":0.0001567,"INCLINATION":87.897,"RA_OF_ASC_NODE":283.9822,"ARG_OF_PERICENTER":77.9632,"MEAN_ANOMALY":282.1674,"EPHEMERIS_TYPE":0,"CLASSIFICATION_TYPE":"U","NORAD_CAT_ID":48769,"ELEMENT_SET_NO":999,"REV_AT_EPOCH":22835,"BSTAR":0.00046833,"MEAN_MOTION_DOT":1.89e-6,"MEAN_MOTION_DDOT":0},{"OBJECT_NAME":"ONEWEB-0237","OBJECT_ID":"2021-045D","EPOCH":"2026-02-13T02:29:57.977664","MEAN_MOTION":13.15549215,"ECCENTRICITY":0.0001297,"INCLINATION":87.8971,"RA_OF_ASC_NODE":283.9855,"ARG_OF_PERICENTER":89.0811,"MEAN_ANOMALY":271.0468,"EPHEMERIS_TYPE":0,"CLASSIFICATION_TYPE":"U","NORAD_CAT_ID":48770,"ELEMENT_SET_NO":999,"REV_AT_EPOCH":22807,"BSTAR":0.00038292,"MEAN_MOTION_DOT":1.57e-6,"MEAN_MOTION_DDOT":0},{"OBJECT_NAME":"ONEWEB-0235","OBJECT_ID":"2021-045E","EPOCH":"2026-02-13T03:42:58.885344","MEAN_MOTION":13.15549356,"ECCENTRICITY":0.0001232,"INCLINATION":87.8981,"RA_OF_ASC_NODE":283.9496,"ARG_OF_PERICENTER":94.8294,"MEAN_ANOMALY":265.2977,"EPHEMERIS_TYPE":0,"CLASSIFICATION_TYPE":"U","NORAD_CAT_ID":48771,"ELEMENT_SET_NO":999,"REV_AT_EPOCH":22807,"BSTAR":-0.00019832,"MEAN_MOTION_DOT":-6.2e-7,"MEAN_MOTION_DDOT":0},{"OBJECT_NAME":"ONEWEB-0242","OBJECT_ID":"2021-045F","EPOCH":"2026-02-13T03:33:51.341760","MEAN_MOTION":13.15549661,"ECCENTRICITY":0.0001348,"INCLINATION":87.898,"RA_OF_ASC_NODE":283.9463,"ARG_OF_PERICENTER":80.917,"MEAN_ANOMALY":279.2112,"EPHEMERIS_TYPE":0,"CLASSIFICATION_TYPE":"U","NORAD_CAT_ID":48772,"ELEMENT_SET_NO":999,"REV_AT_EPOCH":22811,"BSTAR":-0.00025301,"MEAN_MOTION_DOT":-8.2e-7,"MEAN_MOTION_DDOT":0},{"OBJECT_NAME":"ONEWEB-0241","OBJECT_ID":"2021-045G","EPOCH":"2026-02-13T03:15:35.909856","MEAN_MOTION":13.15549743,"ECCENTRICITY":0.0001502,"INCLINATION":87.8972,"RA_OF_ASC_NODE":283.9803,"ARG_OF_PERICENTER":99.0219,"MEAN_ANOMALY":261.1081,"EPHEMERIS_TYPE":0,"CLASSIFICATION_TYPE":"U","NORAD_CAT_ID":48773,"ELEMENT_SET_NO":999,"REV_AT_EPOCH":22802,"BSTAR":3.5521e-6,"MEAN_MOTION_DOT":1.4e-7,"MEAN_MOTION_DDOT":0}]
