ONEWEB-0197             
1 48236U 21031AC  26044.15442934 -.00000237  00000+0 -67306-3 0  9996
2 48236  87.9024 314.4231 0001931  67.5665 292.5669 13.14503743231895
ONEWEB-0194             
1 48237U 21031AD  26044.13394212  .00000125  00000+0  30381-3 0  9997
2 48237  87.9025 314.4444 0001454  74.5090 285.6200 13.14505796232067
ONEWEB-0193             
1 48238U 21031AE  26044.14981256 -.00000387  00000+0 -10774-2 0  9994
2 48238  87.9021 314.4338 0001251  69.6085 290.5179 13.14502920232011
ONEWEB-0191             
1 48239U 21031AF  26044.16090882 -.00000146  00000+0 -42948-3 0  9995
2 48239  87.9026 314.4259 0001712  75.4330 284.6989 13.14504304231873
ONEWEB-0195             
1 48240U 21031AG  26044.13791001  .00000081  00000+0  18380-3 0  9994
2 48240  87.9026 314.4282 0001867  92.4557 267.6787 13.14504221231855
ONEWEB-0201             
1 48241U 21031AH  26044.12615854  .00000194  00000+0  49011-3 0  9995
2 48241  87.9015 314.4618 0002033  84.2106 275.9256 13.14503219232087
ONEWEB-0207             
1 48242U 21031AJ  26044.10619983  .00000150  00000+0  36900-3 0  9996
2 48242  87.9021 314.4343 0001930  75.0695 285.0649 13.14504524231993
ONEWEB-0208             
1 48243U 21031AK  26044.16407839 -.00000186  00000+0 -53673-3 0  9995
2 48243  87.9023 314.4360 0001805  86.5649 273.5687 13.14504039232011
ONEWEB-0200             
1 48244U 21031AL  26044.12760839  .00000230  00000+0  58540-3 0  9990
2 48244  87.9022 314.4323 0001764  81.8947 278.2382 13.14503371231935
ONEWEB-0217             
1 48245U 21031AM  26044.14346606 -.00000016  00000+0 -78093-4 0  9995
2 48245  87.9031 314.4272 0001828  91.4246 268.7093 13.14503363231887
ONEWEB-0211             
1 48767U 21045A   26044.12493895  .00000152  00000+0  36698-3 0  9993
2 48767  87.8979 283.8788 0001513 101.8204 258.3097 13.16142405228128
ONEWEB-0223             
1 48768U 21045B   26044.14375892 -.00000092  00000+0 -27767-3 0  9994
2 48768  87.8981 283.9513 0001314  98.7054 261.4225 13.15549969228094
ONEWEB-0230             
1 48769U 21045C   26044.11524022  .00000189  00000+0  46833-3 0  9993
2 48769  87.8970 283.9822 0001567  77.9632 282.1674 13.15548843228354
ONEWEB-0237             
1 48770U 21045D   26044.10414326  .00000157  00000+0  38292-3 0  9994
2 48770  87.8971 283.9855 0001297  89.0811 271.0468 13.15549215228077
ONEWEB-0235             
1 48771U 21045E   26044.15484821 -.00000062  00000+0 -19832-3 0  9993
2 48771  87.8981 283.9496 0001232  94.8294 265.2977 13.15549356228074
ONEWEB-0242             
1 48772U 21045F   26044.14851090 -.00000082  00000+0 -25301-3 0  9999
2 48772  87.8980 283.9463 0001348  80.9170 279.2112 13.15549661228115
ONEWEB-0241             
1 48773U 21045G   26044.13583229  .00000014  00000+0  35521-5 0  9995
2 48773  87.8972 283.9803 0001502  99.0219 261.1081 13.15549743228028
